{
  "norad_id": 52908,
  "name": "YAOGAN-35 02B",
  "history": [
    {
      "epoch": "2026-05-03T20:40:09.213600Z",
      "apogee_km": 408.19827886643907,
      "perigee_km": 400.63573115085455,
      "latitude_deg": -2.756936608134335e-05,
      "longitude_deg": 179.7612386860363,
      "height_km": 399.7842248798661,
      "semi_major_axis_km": 6782.5540050086465,
      "eccentricity": 0.0005575,
      "inclination_deg": 34.9976,
      "raan_deg": 351.5585,
      "arg_perigee_deg": 338.8707,
      "mean_anomaly_deg": 21.1786,
      "mean_motion_rev_day": 15.54221353
    },
    {
      "epoch": "2026-05-04T21:19:59.774592Z",
      "apogee_km": 407.6631740769417,
      "perigee_km": 400.34795510677304,
      "latitude_deg": 1.1693642549096409e-05,
      "longitude_deg": 162.01030373262122,
      "height_km": 399.3437203686489,
      "semi_major_axis_km": 6782.142564591857,
      "eccentricity": 0.0005393,
      "inclination_deg": 34.9973,
      "raan_deg": 344.7811,
      "arg_perigee_deg": 346.4332,
      "mean_anomaly_deg": 13.6247,
      "mean_motion_rev_day": 15.54362786
    },
    {
      "epoch": "2026-05-05T20:27:12.670272Z",
      "apogee_km": 407.10428563732694,
      "perigee_km": 399.98487631361877,
      "latitude_deg": 4.5803006955992106e-05,
      "longitude_deg": 167.90210161692448,
      "height_km": 398.90261881254247,
      "semi_major_axis_km": 6781.681580975473,
      "eccentricity": 0.0005249,
      "inclination_deg": 34.9973,
      "raan_deg": 338.4261,
      "arg_perigee_deg": 353.2611,
      "mean_anomaly_deg": 6.8043,
      "mean_motion_rev_day": 15.54521275
    },
    {
      "epoch": "2026-05-06T21:06:46.637280Z",
      "apogee_km": 406.58788709967394,
      "perigee_km": 399.81739760075106,
      "latitude_deg": -6.844703055214172e-06,
      "longitude_deg": 150.21806669407474,
      "height_km": 398.7104293715628,
      "semi_major_axis_km": 6781.339642350213,
      "eccentricity": 0.0004992,
      "inclination_deg": 34.9973,
      "raan_deg": 331.6464,
      "arg_perigee_deg": 1.0314,
      "mean_anomaly_deg": 359.042,
      "mean_motion_rev_day": 15.54638853
    },
    {
      "epoch": "2026-05-07T20:13:46.437312Z",
      "apogee_km": 406.2064246709824,
      "perigee_km": 399.62337948444474,
      "latitude_deg": -1.6241673524907968e-05,
      "longitude_deg": 156.1636176902178,
      "height_km": 398.559899536902,
      "semi_major_axis_km": 6781.051902077713,
      "eccentricity": 0.0004854,
      "inclination_deg": 34.9972,
      "raan_deg": 325.2905,
      "arg_perigee_deg": 9.4614,
      "mean_anomaly_deg": 350.6201,
      "mean_motion_rev_day": 15.54737806
    },
    {
      "epoch": "2026-05-08T20:53:07.785600Z",
      "apogee_km": 405.7378918444956,
      "perigee_km": 399.349134664908,
      "latitude_deg": 3.5632637472309877e-06,
      "longitude_deg": 138.53250855594143,
      "height_km": 398.3987661540378,
      "semi_major_axis_km": 6780.6805132547015,
      "eccentricity": 0.0004711,
      "inclination_deg": 34.997,
      "raan_deg": 318.5109,
      "arg_perigee_deg": 18.1362,
      "mean_anomaly_deg": 341.953,
      "mean_motion_rev_day": 15.54865541
    },
    {
      "epoch": "2026-05-09T19:59:55.140576Z",
      "apogee_km": 405.3044211155666,
      "perigee_km": 399.16818327707915,
      "latitude_deg": 3.955271132720853e-06,
      "longitude_deg": 144.52867119467425,
      "height_km": 398.3737248173713,
      "semi_major_axis_km": 6780.373302196323,
      "eccentricity": 0.0004525,
      "inclination_deg": 34.997,
      "raan_deg": 312.1536,
      "arg_perigee_deg": 26.2036,
      "mean_anomaly_deg": 333.8917,
      "mean_motion_rev_day": 15.54971216
    },
    {
      "epoch": "2026-05-10T20:39:03.845088Z",
      "apogee_km": 404.9552965869325,
      "perigee_km": 398.9196742799995,
      "latitude_deg": -1.888843730724827e-05,
      "longitude_deg": 126.94852992164572,
      "height_km": 398.36627349812085,
      "semi_major_axis_km": 6780.074485433465,
      "eccentricity": 0.0004451,
      "inclination_deg": 34.9969,
      "raan_deg": 305.3722,
      "arg_perigee_deg": 35.3757,
      "mean_anomaly_deg": 324.7262,
      "mean_motion_rev_day": 15.55074015
    },
    {
      "epoch": "2026-05-11T19:45:40.586688Z",
      "apogee_km": 404.61335415284793,
      "perigee_km": 398.72305938920545,
      "latitude_deg": -4.957649731232887e-06,
      "longitude_deg": 132.98735703661396,
      "height_km": 398.4741027560103,
      "semi_major_axis_km": 6779.805206771026,
      "eccentricity": 0.0004344,
      "inclination_deg": 34.9966,
      "raan_deg": 299.0132,
      "arg_perigee_deg": 44.994,
      "mean_anomaly_deg": 315.1136,
      "mean_motion_rev_day": 15.55166662
    }
  ]
}